{
  "type": "FeatureCollection",
  "features": [
    {
      "type": "Feature",
      "properties": {
        "norad_id": 32225,
        "name": "FENGYUN 1C DEB",
        "group": "fengyun-1c-debris",
        "lat": -78.23531925467977,
        "lon": 171.80644459910076,
        "alt_km": 841.9085415778736,
        "timestamp": "2025-12-19T06:59:44.194438+00:00",
        "meta_object_name": "FENGYUN 1C DEB",
        "meta_object_id": "1999-025CVX",
        "meta_epoch": "2025-12-18T09:22:02.510112",
        "meta_mean_motion": 14.13050119,
        "meta_eccentricity": 0.00719651,
        "meta_inclination": 99.0915,
        "meta_ra_of_asc_node": 41.1408,
        "meta_arg_of_pericenter": 190.6397,
        "meta_mean_anomaly": 169.3256,
        "meta_ephemeris_type": 0,
        "meta_classification_type": "U",
        "meta_norad_cat_id": 32225,
        "meta_element_set_no": 999,
        "meta_rev_at_epoch": 68196,
        "meta_bstar": 0.00018827687,
        "meta_mean_motion_dot": 3.14e-06,
        "meta_mean_motion_ddot": 0,
        "tle_line1": "1 32225U 99025CVX 25352.39030683  .00000314  00000+0  18828-3 0  9995",
        "tle_line2": "2 32225  99.0915  41.1408 0071965 190.6397 169.3256 14.13050119681967"
      },
      "geometry": {
        "type": "Point",
        "coordinates": [
          171.80644459910076,
          -78.23531925467977
        ]
      }
    },
    {
      "type": "Feature",
      "properties": {
        "norad_id": 32230,
        "name": "FENGYUN 1C DEB",
        "group": "fengyun-1c-debris",
        "lat": 30.860997821674044,
        "lon": 137.9629704749833,
        "alt_km": 675.2524734807057,
        "timestamp": "2025-12-19T06:59:44.194448+00:00",
        "meta_object_name": "FENGYUN 1C DEB",
        "meta_object_id": "1999-025CWC",
        "meta_epoch": "2025-12-18T09:32:29.241024",
        "meta_mean_motion": 14.56245568,
        "meta_eccentricity": 0.00503707,
        "meta_inclination": 98.8715,
        "meta_ra_of_asc_node": 142.3682,
        "meta_arg_of_pericenter": 71.7469,
        "meta_mean_anomaly": 316.2893,
        "meta_ephemeris_type": 0,
        "meta_classification_type": "U",
        "meta_norad_cat_id": 32230,
        "meta_element_set_no": 999,
        "meta_rev_at_epoch": 60752,
        "meta_bstar": 0.0022954297,
        "meta_mean_motion_dot": 0.0001029,
        "meta_mean_motion_ddot": 0,
        "tle_line1": "1 32230U 99025CWC 25352.39756066  .00010290  00000+0  22954-2 0  9999",
        "tle_line2": "2 32230  98.8715 142.3682 0050370  71.7469 316.2893 14.56245568607523"
      },
      "geometry": {
        "type": "Point",
        "coordinates": [
          137.9629704749833,
          30.860997821674044
        ]
      }
    },
    {
      "type": "Feature",
      "properties": {
        "norad_id": 32234,
        "name": "FENGYUN 1C DEB",
        "group": "fengyun-1c-debris",
        "lat": 40.35442783943553,
        "lon": 29.969747011857958,
        "alt_km": 1011.1106697139612,
        "timestamp": "2025-12-19T06:59:44.194458+00:00",
        "meta_object_name": "FENGYUN 1C DEB",
        "meta_object_id": "1999-025CWG",
        "meta_epoch": "2025-12-14T12:38:46.497984",
        "meta_mean_motion": 13.9413283,
        "meta_eccentricity": 0.01374559,
        "meta_inclination": 98.529,
        "meta_ra_of_asc_node": 198.2432,
        "meta_arg_of_pericenter": 331.2039,
        "meta_mean_anomaly": 28.1585,
        "meta_ephemeris_type": 0,
        "meta_classification_type": "U",
        "meta_norad_cat_id": 32234,
        "meta_element_set_no": 999,
        "meta_rev_at_epoch": 93234,
        "meta_bstar": 0.0014985343,
        "meta_mean_motion_dot": 2.108e-05,
        "meta_mean_motion_ddot": 0,
        "tle_line1": "1 32234U 99025CWG 25348.52692706  .00002108  00000+0  14985-2 0  9997",
        "tle_line2": "2 32234  98.5290 198.2432 0137455 331.2039  28.1585 13.94132830932348"
      },
      "geometry": {
        "type": "Point",
        "coordinates": [
          29.969747011857958,
          40.35442783943553
        ]
      }
    },
    {
      "type": "Feature",
      "properties": {
        "norad_id": 32241,
        "name": "FENGYUN 1C DEB",
        "group": "fengyun-1c-debris",
        "lat": -80.81365332598871,
        "lon": 104.32940670324477,
        "alt_km": 760.3255460618602,
        "timestamp": "2025-12-19T06:59:44.194468+00:00",
        "meta_object_name": "FENGYUN 1C DEB",
        "meta_object_id": "1999-025CWP",
        "meta_epoch": "2025-12-17T08:21:13.096800",
        "meta_mean_motion": 14.28778702,
        "meta_eccentricity": 0.01465119,
        "meta_inclination": 99.0771,
        "meta_ra_of_asc_node": 20.9898,
        "meta_arg_of_pericenter": 210.2379,
        "meta_mean_anomaly": 149.0287,
        "meta_ephemeris_type": 0,
        "meta_classification_type": "U",
        "meta_norad_cat_id": 32241,
        "meta_element_set_no": 999,
        "meta_rev_at_epoch": 93889,
        "meta_bstar": 0.0010923987,
        "meta_mean_motion_dot": 3.039e-05,
        "meta_mean_motion_ddot": 0,
        "tle_line1": "1 32241U 99025CWP 25351.34806825  .00003039  00000+0  10924-2 0  9991",
        "tle_line2": "2 32241  99.0771  20.9898 0146511 210.2379 149.0287 14.28778702938899"
      },
      "geometry": {
        "type": "Point",
        "coordinates": [
          104.32940670324477,
          -80.81365332598871
        ]
      }
    },
    {
      "type": "Feature",
      "properties": {
        "norad_id": 32243,
        "name": "FENGYUN 1C DEB",
        "group": "fengyun-1c-debris",
        "lat": 2.784018046146489,
        "lon": 16.936631182275875,
        "alt_km": 915.903950708318,
        "timestamp": "2025-12-19T06:59:44.194478+00:00",
        "meta_object_name": "FENGYUN 1C DEB",
        "meta_object_id": "1999-025CWR",
        "meta_epoch": "2025-12-16T19:08:46.301568",
        "meta_mean_motion": 14.04634248,
        "meta_eccentricity": 0.02692873,
        "meta_inclination": 98.2679,
        "meta_ra_of_asc_node": 15.0665,
        "meta_arg_of_pericenter": 112.0478,
        "meta_mean_anomaly": 250.9525,
        "meta_ephemeris_type": 0,
        "meta_classification_type": "U",
        "meta_norad_cat_id": 32243,
        "meta_element_set_no": 999,
        "meta_rev_at_epoch": 93645,
        "meta_bstar": 0.0016264779,
        "meta_mean_motion_dot": 3.562e-05,
        "meta_mean_motion_ddot": 0,
        "tle_line1": "1 32243U 99025CWR 25350.79775812  .00003562  00000+0  16265-2 0  9997",
        "tle_line2": "2 32243  98.2679  15.0665 0269287 112.0478 250.9525 14.04634248936458"
      },
      "geometry": {
        "type": "Point",
        "coordinates": [
          16.936631182275875,
          2.784018046146489
        ]
      }
    },
    {
      "type": "Feature",
      "properties": {
        "norad_id": 32245,
        "name": "FENGYUN 1C DEB",
        "group": "fengyun-1c-debris",
        "lat": 0.06797679093228153,
        "lon": 9.82658997214213,
        "alt_km": 694.5991945122742,
        "timestamp": "2025-12-19T06:59:44.194489+00:00",
        "meta_object_name": "FENGYUN 1C DEB",
        "meta_object_id": "1999-025CWT",
        "meta_epoch": "2025-12-16T06:38:31.473888",
        "meta_mean_motion": 14.77030772,
        "meta_eccentricity": 0.0097149,
        "meta_inclination": 98.6547,
        "meta_ra_of_asc_node": 186.5841,
        "meta_arg_of_pericenter": 330.7675,
        "meta_mean_anomaly": 28.8116,
        "meta_ephemeris_type": 0,
        "meta_classification_type": "U",
        "meta_norad_cat_id": 32245,
        "meta_element_set_no": 999,
        "meta_rev_at_epoch": 66158,
        "meta_bstar": 0.00082943136,
        "meta_mean_motion_dot": 6.263e-05,
        "meta_mean_motion_ddot": 0,
        "tle_line1": "1 32245U 99025CWT 25350.27675317  .00006263  00000+0  82943-3 0  9999",
        "tle_line2": "2 32245  98.6547 186.5841 0097149 330.7675  28.8116 14.77030772661581"
      },
      "geometry": {
        "type": "Point",
        "coordinates": [
          9.82658997214213,
          0.06797679093228153
        ]
      }
    },
    {
      "type": "Feature",
      "properties": {
        "norad_id": 32304,
        "name": "FENGYUN 1C DEB",
        "group": "fengyun-1c-debris",
        "lat": -77.14244364049594,
        "lon": -4.893336174347114,
        "alt_km": 719.2369634776314,
        "timestamp": "2025-12-19T06:59:44.194499+00:00",
        "meta_object_name": "FENGYUN 1C DEB",
        "meta_object_id": "1999-025CWV",
        "meta_epoch": "2025-12-03T02:19:20.087328",
        "meta_mean_motion": 14.50391603,
        "meta_eccentricity": 0.00495576,
        "meta_inclination": 99.3949,
        "meta_ra_of_asc_node": 290.5539,
        "meta_arg_of_pericenter": 255.7789,
        "meta_mean_anomaly": 103.7894,
        "meta_ephemeris_type": 0,
        "meta_classification_type": "U",
        "meta_norad_cat_id": 32304,
        "meta_element_set_no": 999,
        "meta_rev_at_epoch": 56133,
        "meta_bstar": 0.0019806873,
        "meta_mean_motion_dot": 7.809e-05,
        "meta_mean_motion_ddot": 0,
        "tle_line1": "1 32304U 99025CWV 25337.09676027  .00007809  00000+0  19807-2 0  9994",
        "tle_line2": "2 32304  99.3949 290.5539 0049557 255.7789 103.7894 14.50391603561335"
      },
      "geometry": {
        "type": "Point",
        "coordinates": [
          -4.893336174347114,
          -77.14244364049594
        ]
      }
    }
  ]
}